#aV2009  1 18  0  0   .00000000      96 DD+AD WGS84 FIT  NGA
## 1515       .00000000   900.00000000 54849  .0000000000000
+   31     2  3  4  5  6  7  8  9 10 11 12 13 14 15 16 17 18
+         19 20 21 22 23 24 25 26 27 28 29 30 31 32  0  0  0
+          0  0  0  0  0  0  0  0  0  0  0  0  0  0  0  0  0
+          0  0  0  0  0  0  0  0  0  0  0  0  0  0  0  0  0
+          0  0  0  0  0  0  0  0  0  0  0  0  0  0  0  0  0
++         0  0  0  0  0  0  0  0  0  0  0  0  0  0  0  0  0
++         0  0  0  0  0  0  0  0  0  0  0  0  0  0  0  0  0
++         0  0  0  0  0  0  0  0  0  0  0  0  0  0  0  0  0
++         0  0  0  0  0  0  0  0  0  0  0  0  0  0  0  0  0
++         0  0  0  0  0  0  0  0  0  0  0  0  0  0  0  0  0
%c cc cc ccc ccc cccc cccc cccc cccc ccccc ccccc ccccc ccccc
%c cc cc ccc ccc cccc cccc cccc cccc ccccc ccccc ccccc ccccc
%f  0.0000000  0.000000000  0.00000000000  0.000000000000000
%f  0.0000000  0.000000000  0.00000000000  0.000000000000000
%i    0    0    0    0      0      0      0      0         0
%i    0    0    0    0      0      0      0      0         0
/*      NGA, ST. LOUIS,MO.                                  
/*   EPHEMERIS COMPUTED FROM  3 DAYS OF DATA                
/* CCCCCCCCCCCCCCCCCCCCCCCCCCCCCCCCCCCCCCCCCCCCCCCCCCCCCCCCC
/* CCCCCCCCCCCCCCCCCCCCCCCCCCCCCCCCCCCCCCCCCCCCCCCCCCCCCCCCC
*  2009  1 18 18 30   .00000000                                                 
P  2   8149.568393 -14144.645811  20760.866456    161.034249                    
V  2  26415.658637   4600.188108  -7577.631233      -.017620                    
P  3  -8247.913342  23966.795360  -7604.515449    340.743836                    
V  3  -8285.509025   5917.857673  29124.440830       .054017                    
P  4  21660.008478  -6909.209167  13901.769198   -304.421847                    
V  4  17194.572961   5095.224995 -23666.779382      -.135204                    
P  5 -15368.137393 -20862.364442   5822.715245   -563.045152                    
V  5   -731.943768  -8339.860767 -30154.647084      -.546695                    
P  6 -13214.785482  22726.593015  -3503.820580     88.122661                    
V  6  -5721.970538   1658.046953  30733.061410      -.123241                    
P  7  25213.153694   7062.631620   4778.095591     23.267185                    
V  7  -6368.873704   1606.937518  31018.560804      -.002334                    
P  8  25450.508204   -459.476656  -8489.117603   -186.908441                    
V  8  10021.749774   3546.127294  29570.708392      -.015462                    
P  9 -13377.278355 -14253.550388 -18675.111088     35.686011                    
V  9  22311.766161   1416.614154 -17573.687107       .020417                    
P 10    195.943109 -23509.880971  11868.270816     -9.711850                    
V 10   7825.893740  13563.963121  26739.169542      -.005908                    
P 11  15821.923032  13059.416208 -17232.425911     10.147018                    
V 11 -21479.560648   3822.334539 -16661.710930      -.010634                    
P 12 -12055.416298 -23420.734035   3893.362174   -324.395520                    
V 12    580.498467  -5418.768157 -31297.454094       .033877                    
P 13  14877.773388   4204.812310  21478.996424    285.444804                    
V 13 -17835.597298  20882.655396   8231.882070       .013918                    
P 14 -20178.905622  14527.980348  -9058.411765   -166.507983                    
V 14   6143.276572 -10103.929854 -29596.776033       .052048                    
P 15   1548.912476 -20850.467580 -16319.569004   -244.060407                    
V 15  14265.256493 -15283.145412  20882.870228      -.055721                    
P 16  -5081.883917  19772.397638  16930.297615     81.086882                    
V 16  -9135.402559 -19489.355120  20305.854682      -.026965                    
P 17  20419.408983 -12361.624198 -11399.671713     44.616733                    
V 17  -7249.769734  12956.594127 -27101.477560       .009110                    
P 18 -17157.663621  -8380.150072 -18397.994762    -91.849338                    
V 18  -6548.566342 -22851.298449  15969.942056       .036575                    
P 19  -1080.016996  19625.463053 -17695.871593     33.669900                    
V 19 -16681.851816  15489.800174  18353.478709      -.004664                    
P 20  13987.354992  21722.178587   6149.098407     93.322078                    
V 20    156.262550   8586.216442 -30037.251450      -.010239                    
P 21 -26481.654923  -4731.473211    347.889406     33.270019                    
V 21    686.098273  -3038.331126  30756.691339      -.017602                    
P 22 -14695.208419   5066.869660 -21379.366176    206.445759                    
V 22  -9190.821629 -26013.677311     94.742978      -.003834                    
P 23   8445.696259  12978.807629  21497.016787    385.341585                    
V 23 -17583.208919  21045.762694  -6046.462200       .007753                    
P 24 -18849.788172 -13280.535690  13075.984874    158.574398                    
V 24  16708.663536    637.605467  25264.345820       .029232                    
P 25  21609.027697   9583.642868  12278.518026    182.919742                    
V 25 -15179.057482   1410.209907  26569.593205       .262469                    
P 26   7807.201272 -21768.895202 -13064.919583     37.311040                    
V 26  11775.661496 -10843.765385  26636.974201       .033519                    
P 27  23130.238015  -5649.491295 -11222.176326     17.338381                    
V 27  14971.323450   3526.341631  27358.039595       .031625                    
P 28  14976.507295  -2177.977004 -21437.905885    -23.731902                    
V 28   9430.008586  26541.661772   3494.960035       .000708                    
P 29 -14794.539789  -5667.572541  21416.047199    -17.179917                    
V 29  16808.380387 -21088.533263   6094.044085       .027600                    
P 30 -17199.449424 -14637.551105  13683.414940    120.617482                    
V 30  -5056.983056 -17418.414021 -24269.805391       .024080                    
P 31 -19298.344823   8547.999566  16412.247265    -48.216767                    
V 31 -19937.377861  -4432.411915 -21296.500727      -.014618                    
P 32   7819.569304  25515.151399    203.720865    302.579531                    
V 32  -2422.750177    480.239849 -31719.283559      -.027542                    
EOF
